H1 CPF  1  DGF 2022 10 31 17  8041 larets     NONE      
H2   304206 5557    27944 2022 10 10 00 00 00 2022 10 17 00 00 00    30 1 1  0 0 0
H5  0.0650
H9
10 0 59863  46800.000000  0      -3728980.018      -2066902.571      -5628017.594
10 0 59863  46830.000000  0      -3910185.466      -2095173.891      -5493040.380
10 0 59863  46860.000000  0      -4087552.929      -2120541.421      -5352465.523
10 0 59863  46890.000000  0      -4260889.531      -2142996.325      -5206435.306
10 0 59863  46920.000000  0      -4430006.376      -2162533.539      -5055097.615
10 0 59863  46950.000000  0      -4594718.757      -2179151.755      -4898605.799
10 0 59863  46980.000000  0      -4754846.366      -2192853.415      -4737118.521
10 0 59863  47010.000000  0      -4910213.499      -2203644.687      -4570799.596
10 0 59863  47040.000000  0      -5060649.254      -2211535.443      -4399817.840
10 0 59863  47070.000000  0      -5205987.732      -2216539.231      -4224346.894
10 0 59863  47100.000000  0      -5346068.227      -2218673.245      -4044565.057
10 0 59863  47130.000000  0      -5480735.411      -2217958.281      -3860655.102
10 0 59863  47160.000000  0      -5609839.517      -2214418.703      -3672804.096
10 0 59863  47190.000000  0      -5733236.514      -2208082.390      -3481203.205
10 0 59863  47220.000000  0      -5850788.275      -2198980.686      -3286047.508
10 0 59863  47250.000000  0      -5962362.738      -2187148.348      -3087535.791
10 0 59863  47280.000000  0      -6067834.069      -2172623.482      -2885870.346
10 0 59863  47310.000000  0      -6167082.804      -2155447.482      -2681256.767
10 0 59863  47340.000000  0      -6259995.997      -2135664.959      -2473903.736
10 0 59863  47370.000000  0      -6346467.361      -2113323.673      -2264022.810
10 0 59863  47400.000000  0      -6426397.389      -2088474.452      -2051828.198
10 0 59863  47430.000000  0      -6499693.484      -2061171.114      -1837536.540
10 0 59863  47460.000000  0      -6566270.065      -2031470.382      -1621366.680
10 0 59863  47490.000000  0      -6626048.676      -1999431.798      -1403539.437
10 0 59863  47520.000000  0      -6678958.081      -1965117.630      -1184277.377
10 0 59863  47550.000000  0      -6724934.360      -1928592.775       -963804.575
10 0 59863  47580.000000  0      -6763920.983      -1889924.668       -742346.386
10 0 59863  47610.000000  0      -6795868.888      -1849183.171       -520129.201
10 0 59863  47640.000000  0      -6820736.540      -1806440.477       -297380.210
10 0 59863  47670.000000  0      -6838489.992      -1761770.994        -74327.166
10 0 59863  47700.000000  0      -6849102.925      -1715251.242        148801.861
10 0 59863  47730.000000  0      -6852556.688      -1666959.734        371778.723
10 0 59863  47760.000000  0      -6848840.321      -1616976.865        594375.435
10 0 59863  47790.000000  0      -6837950.580      -1565384.796        816364.415
10 0 59863  47820.000000  0      -6819891.939      -1512267.329       1037518.726
10 0 59863  47850.000000  0      -6794676.595      -1457709.792       1257612.314
10 0 59863  47880.000000  0      -6762324.456      -1401798.914       1476420.247
10 0 59863  47910.000000  0      -6722863.126      -1344622.702       1693718.952
10 0 59863  47940.000000  0      -6676327.874      -1286270.313       1909286.448
10 0 59863  47970.000000  0      -6622761.599      -1226831.935       2122902.580
10 0 59863  48000.000000  0      -6562214.786      -1166398.651       2334349.250
10 0 59863  48030.000000  0      -6494745.451      -1105062.317       2543410.639
10 0 59863  48060.000000  0      -6420419.083      -1042915.431       2749873.439
10 0 59863  48090.000000  0      -6339308.569       -980051.004       2953527.070
10 0 59863  48120.000000  0      -6251494.119       -916562.430       3154163.904
10 0 59863  48150.000000  0      -6157063.173       -852543.356       3351579.477
10 0 59863  48180.000000  0      -6056110.305       -788087.557       3545572.700
10 0 59863  48210.000000  0      -5948737.115       -723288.803       3735946.069
10 0 59863  48240.000000  0      -5835052.116       -658240.736       3922505.860
10 0 59863  48270.000000  0      -5715170.614       -593036.741       4105062.323
10 0 59863  48300.000000  0      -5589214.580       -527769.827       4283429.878
10 0 59863  48330.000000  0      -5457312.519       -462532.494       4457427.292
10 0 59863  48360.000000  0      -5319599.327       -397416.619       4626877.869
10 0 59863  48390.000000  0      -5176216.148       -332513.326       4791609.618
10 0 59863  48420.000000  0      -5027310.218       -267912.873       4951455.429
10 0 59863  48450.000000  0      -4873034.708       -203704.528       5106253.231
10 0 59863  48480.000000  0      -4713548.560       -139976.458       5255846.159
10 0 59863  48510.000000  0      -4549016.314        -76815.608       5400082.706
10 0 59863  48540.000000  0      -4379607.931        -14307.596       5538816.876
10 0 59863  48570.000000  0      -4205498.604         47463.400       5671908.321
10 0 59863  48600.000000  0      -4026868.575        108414.748       5799222.474
10 0 59863  48630.000000  0      -3843902.940        168465.467       5920630.685
10 0 59863  48660.000000  0      -3656791.449        227536.326       6036010.342
10 0 59863  48690.000000  0      -3465728.304        285549.948       6145244.982
10 0 59863  48720.000000  0      -3270911.951        342430.900       6248224.406
10 0 59863  48750.000000  0      -3072544.876        398105.784       6344844.777
10 0 59863  48780.000000  0      -2870833.389        452503.332       6435008.726
10 0 59863  48810.000000  0      -2665987.406        505554.483       6518625.441
10 0 59863  48840.000000  0      -2458220.227        557192.479       6595610.752
10 0 59863  48870.000000  0      -2247748.310        607352.932       6665887.213
10 0 59863  48900.000000  0      -2034791.044        655973.913       6729384.163
10 0 59863  48930.000000  0      -1819570.519        702996.014       6786037.798
10 0 59863  48960.000000  0      -1602311.297        748362.427       6835791.222
10 0 59863  48990.000000  0      -1383240.180        792019.001       6878594.499
10 0 59863  49020.000000  0      -1162585.972        833914.310       6914404.701
10 0 59863  49050.000000  0       -940579.247        873999.708       6943185.948
10 0 59863  49080.000000  0       -717452.103        912229.386       6964909.435
10 0 59863  49110.000000  0       -493437.929        948560.418       6979553.462
10 0 59863  49140.000000  0       -268771.160        982952.813       6987103.450
10 0 59863  49170.000000  0        -43687.036       1015369.553       6987551.956
10 0 59863  49200.000000  0        181578.640       1045776.637       6980898.681
10 0 59863  49230.000000  0        406789.746       1074143.113       6967150.465
10 0 59863  49260.000000  0        631710.089       1100441.113       6946321.287
10 0 59863  49290.000000  0        856103.647       1124645.876       6918432.244
10 0 59863  49320.000000  0       1079734.814       1146735.775       6883511.538
10 0 59863  49350.000000  0       1302368.643       1166692.335       6841594.442
10 0 59863  49380.000000  0       1523771.093       1184500.244       6792723.275
10 0 59863  49410.000000  0       1743709.267       1200147.369       6736947.354
10 0 59863  49440.000000  0       1961951.662       1213624.759       6674322.957
10 0 59863  49470.000000  0       2178268.401       1224926.652       6604913.267
10 0 59863  49500.000000  0       2392431.484       1234050.468       6528788.316
10 0 59863  49530.000000  0       2604215.020       1240996.809       6446024.923
10 0 59863  49560.000000  0       2813395.478       1245769.446       6356706.619
10 0 59863  49590.000000  0       3019751.916       1248375.307       6260923.565
10 0 59863  49620.000000  0       3223066.216       1248824.456       6158772.470
10 0 59863  49650.000000  0       3423123.316       1247130.075       6050356.492
10 0 59863  49680.000000  0       3619711.439       1243308.436       5935785.146
10 0 59863  49710.000000  0       3812622.311       1237378.872       5815174.200
10 0 59863  49740.000000  0       4001651.390       1229363.742       5688645.562
10 0 59863  49770.000000  0       4186598.087       1219288.396       5556327.171
10 0 59863  49800.000000  0       4367265.975       1207181.129       5418352.873
10 0 59863  49830.000000  0       4543463.011       1193073.139       5274862.296
10 0 59863  49860.000000  0       4715001.747       1176998.478       5126000.721
10 0 59863  49890.000000  0       4881699.534       1158993.996       4971918.937
10 0 59863  49920.000000  0       5043378.734       1139099.283       4812773.091
10 0 59863  49950.000000  0       5199866.909       1117356.613       4648724.536
10 0 59863  49980.000000  0       5350997.011       1093810.876       4479939.670
10 0 59863  50010.000000  0       5496607.576       1068509.513       4306589.772
10 0 59863  50040.000000  0       5636542.898       1041502.442       4128850.831
10 0 59863  50070.000000  0       5770653.208       1012841.991       3946903.370
10 0 59863  50100.000000  0       5898794.839        982582.812       3760932.264
10 0 59863  50130.000000  0       6020830.392        950781.805       3571126.550
10 0 59863  50160.000000  0       6136628.883        917498.026       3377679.242
10 0 59863  50190.000000  0       6246065.895        882792.605       3180787.131
10 0 59863  50220.000000  0       6349023.714        846728.651       2980650.592
10 0 59863  50250.000000  0       6445391.476        809371.162       2777473.385
10 0 59863  50280.000000  0       6535065.290        770786.930       2571462.442
10 0 59863  50310.000000  0       6617948.368        731044.444       2362827.658
10 0 59863  50340.000000  0       6693951.132        690213.787       2151781.668
10 0 59863  50370.000000  0       6762991.322        648366.535       1938539.625
99
